CUTE-1 (CO-55)          
1 27844U 03031E   24293.93310485  .00001419  00000+0  64193-3 0  9995
2 27844  98.6795 299.2625 0010458 137.4338 222.7653 14.23561874105535
CUBESAT XI-IV (CO-57)   
1 27848U 03031J   24293.49596273  .00001554  00000+0  70949-3 0  9997
2 27848  98.6827 299.0022 0010017 154.0713 206.0969 14.22962046105267
CUBESAT XI-V            
1 28895U 05043F   24293.95307256  .00008185  00000+0  14021-2 0  9992
2 28895  98.2198  70.1822 0014636 325.8946  34.1317 14.68979727 12998
CUTE-1.7+APD II (CO-65) 
1 32785U 08021C   24294.13632072  .00021684  00000+0  17650-2 0  9992
2 32785  97.7748 258.7292 0007350 276.6560  83.3826 14.99524002894255
AAUSAT-II               
1 32788U 08021F   24293.89379371  .00085308  00000+0  30266-2 0  9998
2 32788  97.6039 275.4109 0008995  91.2771 268.9499 15.28685385897293
CANX-2                  
1 32790U 08021H   24293.87170903  .00014976  00000+0  12838-2 0  9997
2 32790  97.7852 257.0886 0009259 284.8593  75.1603 14.97589970894014
SEEDS II (CO-66)        
1 32791U 08021J   24293.86139918  .00036294  00000+0  23150-2 0  9994
2 32791  97.7058 264.7876 0002112 216.8326 143.2757 15.08598095895364
SWISSCUBE               
1 35932U 09051B   24294.14764715  .00007099  00000+0  14897-2 0  9998
2 35932  98.4504 179.8968 0005988 300.9668  59.0942 14.59950761800828
BEESAT-1                
1 35933U 09051C   24293.97384038  .00005060  00000+0  10742-2 0  9996
2 35933  98.4437 180.4574 0004649 319.6051  40.4803 14.59562921800907
ITUPSAT1                
1 35935U 09051E   24294.14858508  .00004978  00000+0  10824-2 0  9994
2 35935  98.4535 180.3482 0007025 322.3871  37.6835 14.58458656800504
TISAT 1                 
1 36799U 10035E   24293.66116014  .00038416  00000+0  25618-2 0  9993
2 36799  98.0710 188.7181 0004440 141.5076 218.6467 15.06936949775770
AEROCUBE 4.5A           
1 38767U 12048K   24294.11393395  .00059385  00000+0  25634-2 0  9992
2 38767  64.6563 270.8371 0112226 338.1206  21.5143 15.16569114279360
AEROCUBE 4.5B           
1 38768U 12048L   24294.09824731  .00171436  00000+0  35695-2 0  9993
2 38768  64.6480 184.5183 0076138 323.5226  36.0735 15.41680313280556
STRAND-1                
1 39090U 13009E   24293.49526846  .00001878  00000+0  65567-3 0  9993
2 39090  98.3802 118.3953 0007838 238.1162 121.9262 14.36374971610085
BRITE-AUSTRIA           
1 39091U 13009F   24293.49804192  .00001277  00000+0  45389-3 0  9990
2 39091  98.3852 117.6734 0009247 246.7013 113.3200 14.36010999610103
NEE-01 PEGASO           
1 39151U 13018B   24293.87110659  .00012377  00000+0  13625-2 0  9997
2 39151  98.0496  52.4368 0014079 356.5209   3.5906 14.87642785620492
ESTCUBE 1               
1 39161U 13021C   24294.13315640  .00009392  00000+0  13159-2 0  9994
2 39161  97.8146 356.7988 0008912 177.2190 182.9072 14.77694644615575
POPACS 1                
1 39268U 13055D   24293.20802422  .00090436  60770-6  13068-2 0  9990
2 39268  80.9737   7.4836 0354482  50.0507 313.1286 15.07184754580587
POPACS 2                
1 39269U 13055E   24293.90606283  .00029236  00000+0  64897-3 0  9995
2 39269  80.9979 103.4225 0526123 300.9917  54.0599 14.62886671575017
POPACS 3                
1 39270U 13055F   24292.90503142  .00019895  00000+0  52642-3 0  9991
2 39270  81.0063 159.4715 0613825  97.6529 269.4774 14.40721271571456
ZACUBE-1 (TSHEPISOSAT)  
1 39417U 13066B   24293.93142259  .00017355  00000+0  16802-2 0  9994
2 39417  97.7497 247.3859 0050395 106.2371 254.4400 14.91832889590162
WNISAT-1                
1 39423U 13066H   24294.06305501  .00002806  00000+0  53688-3 0  9996
2 39423  97.6679 118.3175 0167890 337.4554  21.9328 14.55941515578819
TRITON-1                
1 39427U 13066M   24294.15309321  .00017128  00000+0  22954-2 0  9998
2 39427  97.8370 208.2080 0101363  40.0802 320.7830 14.75894211584821
DELFI-N3XT              
1 39428U 13066N   24293.83333918  .00025745  00000+0  30130-2 0  9991
2 39428  97.8337 209.1007 0097514  44.5779 316.3224 14.81616319584521
GOMX-1                  
1 39430U 13066Q   24294.12995677  .00011194  00000+0  18060-2 0  9994
2 39430  97.7099 160.9226 0135908 214.7296 144.4981 14.65544816581330
CUBEBUG-2 (LO-74)       
1 39440U 13066AA  24293.41587285  .00018496  00000+0  20494-2 0  9994
2 39440  97.8234 234.6280 0065064 226.3785 133.2022 14.85791112586768
NEE-02 KRYSAOR          
1 39441U 13066AB  24293.77334419  .00013473  00000+0  16398-2 0  9991
2 39441  97.8315 230.3114 0070276 250.1737 109.1891 14.81784012586371
FUNCUBE-1 (AO-73)       
1 39444U 13066AE  24293.62338968  .00028917  00000+0  25481-2 0  9993
2 39444  97.7344 250.5875 0047936  86.5381 274.1322 14.95503166588688
UWE-3                   
1 39446U 13066AG  24293.59374137  .00018153  00000+0  18935-2 0  9996
2 39446  97.7942 240.9292 0057921 167.8097 192.4537 14.88549851587190
BRITE-CA1 (TORONTO)     
1 40020U 14033L   24293.94403702  .00004616  00000+0  73264-3 0  9997
2 40020  97.8961  66.8675 0082814  54.2469 306.6403 14.70308958553302
DUCHIFAT-1              
1 40021U 14033M   24293.95035662  .00051962  00000+0  28777-2 0  9999
2 40021  98.0997 284.7701 0014003  47.7506 312.4908 15.13546320562951
NANOSATC-BR1            
1 40024U 14033Q   24293.90694014  .00038073  00000+0  24550-2 0  9992
2 40024  98.0766 271.6676 0008489 101.3941 258.8239 15.08161267562536
QB50P1                  
1 40025U 14033R   24293.65687878  .00030259  00000+0  22211-2 0  9995
2 40025  98.0583 258.8945 0013848 115.7141 244.5514 15.03337144561559
QB50P2                  
1 40032U 14033Y   24293.87444556  .00022670  00000+0  17352-2 0  9999
2 40032  98.0182 249.9357 0013017  72.6162 287.6484 15.01825945561364
PERSEUS-M2              
1 40037U 14033AD  24294.12067723  .00007876  00000+0  78666-3 0  9997
2 40037  97.9328 225.4633 0013883 136.5299 223.7016 14.91700000560944
PERSEUS-M1              
1 40039U 14033AF  24293.75964679  .00011381  00000+0  11380-2 0  9998
2 40039  97.9107 220.7897 0013764 136.4972 223.7334 14.91548148560245
POLYITAN-1              
1 40042U 14033AJ  24293.97785955  .00041385  00000+0  27020-2 0  9999
2 40042  98.0853 263.8802 0015370  75.4079 284.8850 15.07612601562111
TIGRISAT                
1 40043U 14033AK  24293.98209279  .00010999  00000+0  14115-2 0  9999
2 40043  97.7096  91.5402 0052948 256.4420 103.0891 14.80394521556211
AEROCUBE 6A             
1 40045U 14033AM  24294.00302626  .00024195  00000+0  26756-2 0  9992
2 40045  97.6773 102.8560 0047237 230.6533 129.0493 14.86542668556555
AEROCUBE 6B             
1 40046U 14033AN  24293.96298823  .00025773  00000+0  27859-2 0  9998
2 40046  97.6749 101.6407 0045880 225.3704 134.3768 14.87498321556752
CANX-4                  
1 40055U 14034C   24294.12862897  .00005639  00000+0  77095-3 0  9993
2 40055  98.3835 134.1045 0013839 147.4688 212.7377 14.78915344555046
CANX-5                  
1 40056U 14034D   24293.86233456  .00005371  00000+0  73453-3 0  9994
2 40056  98.3839 133.8371 0013772 148.4423 211.7615 14.78922725545788
UKUBE-1                 
1 40074U 14037F   24293.32412772  .00031418  00000+0  26780-2 0  9999
2 40074  98.3504 231.2055 0006371  49.2084 310.9688 14.97661340557337
BRITE-PL2 (HEWELIUSZ)   
1 40119U 14049B   24294.23819175  .00010997  00000+0  11353-2 0  9990
2 40119  97.8870  33.4669 0014335 315.6591  44.3478 14.90266939551283
AEROCUBE 5C             
1 40965U 15058B   24294.10332627  .00016466  00000+0  14056-2 0  9998
2 40965  64.7701 337.6451 0190805 270.8209  87.1043 14.84771522275560
AEROCUBE 7              
1 40966U 15058C   24294.07767952  .00019880  00000+0  16196-2 0  9998
2 40966  64.7669 330.2130 0184783 270.4947  87.4993 14.87116319275680
FOX-1A (AO-85)          
1 40967U 15058D   24294.14652494  .00019645  00000+0  17098-2 0  9992
2 40967  64.7787 351.8434 0189044 266.5576  91.3894 14.84204955 23526
SINOD-D 1               
1 40968U 15058E   24294.13343980  .00023141  00000+0  19155-2 0  9991
2 40968  64.7783 343.3264 0182358 265.6051  92.4205 14.86777762 26376
SNAP-3 ALICE            
1 40970U 15058G   24294.12107028  .00057664  00000+0  33586-2 0  9995
2 40970  64.7683 292.2230 0144685 264.1913  94.2695 15.03196687 24513
LMRST-SAT               
1 40971U 15058H   24294.12693779  .00017544  00000+0  15254-2 0  9994
2 40971  64.7784 347.4592 0190461 267.9594  89.9695 14.84117275 23524
SNAP-3 EDDIE            
1 40972U 15058J   24294.09918142  .00060289  00000+0  34640-2 0  9999
2 40972  64.7658 285.4335 0144772 265.1010  93.3566 15.03637752 26616
PROPCUBE 3              
1 40973U 15058K   24294.12376826  .00020904  00000+0  17322-2 0  9999
2 40973  64.7712 334.0464 0186594 269.3902  88.5825 14.86260627 24587
BISONSAT                
1 40974U 15058L   24294.15271060  .00050949  00000+0  34546-2 0  9996
2 40974  64.7660 303.3144 0162720 267.3415  90.9065 14.95933623 24425
SNAP-3 JIMI             
1 40975U 15058M   24294.05150277  .00027349  00000+0  20884-2 0  9990
2 40975  64.7687 320.2139 0176551 268.4950  89.5932 14.90311000 23611
PROPCUBE 1 (FLORA)      
1 40976U 15058N   24294.15315072  .00017412  00000+0  15735-2 0  9997
2 40976  64.7775   3.5062 0189203 269.2270  88.7157 14.82867928 26314
SINOD-D 3               
1 40977U 15058P   24294.15877657  .00023710  00000+0  20355-2 0  9992
2 40977  64.7759 355.4680 0182453 268.4878  89.5326 14.85433967 24575
HORYU-4                 
1 41340U 16012D   24294.19525197  .00055684  00000+0  23302-2 0  9991
2 41340  31.0010 237.7998 0008287 182.2770 177.7835 15.22308282477173
RAVAN                   
1 41849U 16067B   24294.05112331  .00042292  00000+0  20248-2 0  9999
2 41849  98.0639 119.5044 0011394 326.4193  33.6317 15.18767338434905
CELTEE 1                
1 41850U 16067C   24293.99565918  .00020185  00000+0  12633-2 0  9992
2 41850  98.1078 110.2279 0001707 115.5311 244.6093 15.09435834434233
